$$SOE
2460147.500000000, A.D. 2023-Jul-22 00:00:00.0000, 3.091185294503404E+08, -1.758140743912833E+08, -1.591734490935912E+08,
2460154.500000000, A.D. 2023-Jul-29 00:00:00.0000, 3.123025662750018E+08, -1.659462042260087E+08, -1.585372649161037E+08,
2460161.500000000, A.D. 2023-Aug-05 00:00:00.0000, 3.152261485427694E+08, -1.559399149651513E+08, -1.577688517729480E+08,
2460168.500000000, A.D. 2023-Aug-12 00:00:00.0000, 3.178825006094978E+08, -1.458014070100099E+08, -1.568666799066399E+08,
2460175.500000000, A.D. 2023-Aug-19 00:00:00.0000, 3.202647859996147E+08, -1.355371735855160E+08, -1.558292518637597E+08,
2460182.500000000, A.D. 2023-Aug-26 00:00:00.0000, 3.223661112031571E+08, -1.251540172745260E+08, -1.546551072738598E+08,
2460189.500000000, A.D. 2023-Sep-02 00:00:00.0000, 3.241795303797669E+08, -1.146590674192109E+08, -1.533428281639034E+08,
2460196.500000000, A.D. 2023-Sep-09 00:00:00.0000, 3.256980511123832E+08, -1.040597984378707E+08, -1.518910448565158E+08,
2460203.500000000, A.D. 2023-Sep-16 00:00:00.0000, 3.269146414967730E+08, -9.336404911420444E+07, -1.502984425173727E+08,
2460210.500000000, A.D. 2023-Sep-23 00:00:00.0000, 3.278222391139894E+08, -8.258004256174150E+07, -1.485637684163902E+08,
2460217.500000000, A.D. 2023-Sep-30 00:00:00.0000, 3.284137616931065E+08, -7.171640565272512E+07, -1.466858398313962E+08,
2460224.500000000, A.D. 2023-Oct-07 00:00:00.0000, 3.286821172735525E+08, -6.078218842837431E+07, -1.446635524871397E+08,
2460231.500000000, A.D. 2023-Oct-14 00:00:00.0000, 3.286202150792534E+08, -4.978688676843742E+07, -1.424958899604025E+08,
2460238.500000000, A.D. 2023-Oct-21 00:00:00.0000, 3.282209805154637E+08, -3.874046666272828E+07, -1.401819342791241E+08,
2460245.500000000, A.D. 2023-Oct-28 00:00:00.0000, 3.274773730627844E+08, -2.765338774855306E+07, -1.377208774655605E+08,
2460252.500000000, A.D. 2023-Nov-04 00:00:00.0000, 3.263824060337117E+08, -1.653662678669105E+07, -1.351120340397659E+08,
2460259.500000000, A.D. 2023-Nov-11 00:00:00.0000, 3.249291685993664E+08, -5.401701552118301E+06, -1.323548546172898E+08,
2460266.500000000, A.D. 2023-Nov-18 00:00:00.0000, 3.231108505502559E+08, 5.739304950641818E+06, -1.294489406946516E+08,
2460273.500000000, A.D. 2023-Nov-25 00:00:00.0000, 3.209207701219477E+08, 1.687372015995897E+07, -1.263940606942370E+08,
2460280.500000000, A.D. 2023-Dec-02 00:00:00.0000, 3.183524051843945E+08, 2.798825773642985E+07, -1.231901673362781E+08,
2460287.500000000, A.D. 2023-Dec-09 00:00:00.0000, 3.153994281538422E+08, 3.906899366592021E+07, -1.198374164096698E+08,
2460294.500000000, A.D. 2023-Dec-16 00:00:00.0000, 3.120557452023008E+08, 5.010134302454662E+07, -1.163361870192088E+08,
2460301.500000000, A.D. 2023-Dec-23 00:00:00.0000, 3.083155403988850E+08, 6.107003847614048E+07, -1.126871033242565E+08,
2460308.500000000, A.D. 2023-Dec-30 00:00:00.0000, 3.041733237250815E+08, 7.195911200496106E+07, -1.088910575856078E+08,
2460315.500000000, A.D. 2024-Jan-06 00:00:00.0000, 2.996239814735408E+08, 8.275187804769436E+07, -1.049492345653495E+08,
2460322.500000000, A.D. 2024-Jan-13 00:00:00.0000, 2.946628324648303E+08, 9.343091681092912E+07, -1.008631377086967E+08,
2460329.500000000, A.D. 2024-Jan-20 00:00:00.0000, 2.892856915289355E+08, 1.039780615362284E+08, -9.663461692447288E+07,
2460336.500000000, A.D. 2024-Jan-27 00:00:00.0000, 2.834889384047988E+08, 1.143743911344201E+08, -9.226589764836201E+07,
2460343.500000000, A.D. 2024-Feb-03 00:00:00.0000, 2.772695917558818E+08, 1.246002281007310E+08, -8.775961111098145E+07,
2460350.500000000, A.D. 2024-Feb-10 00:00:00.0000, 2.706253886288693E+08, 1.346351423717843E+08, -8.311882569469246E+07,
2460357.500000000, A.D. 2024-Feb-17 00:00:00.0000, 2.635548694459381E+08, 1.444579621758056E+08, -7.834707916828747E+07,
2460364.500000000, A.D. 2024-Feb-24 00:00:00.0000, 2.560574683967381E+08, 1.540467930209740E+08, -7.344841151263231E+07,
2460371.500000000, A.D. 2024-Mar-02 00:00:00.0000, 2.481336089422199E+08, 1.633790459971843E+08, -6.842739797897369E+07,
2460378.500000000, A.D. 2024-Mar-09 00:00:00.0000, 2.397848040771804E+08, 1.724314765993353E+08, -6.328918195152958E+07,
2460385.500000000, A.D. 2024-Mar-16 00:00:00.0000, 2.310137610525600E+08, 1.811802355801588E+08, -5.803950709836759E+07,
2460392.500000000, A.D. 2024-Mar-23 00:00:00.0000, 2.218244895218943E+08, 1.896009342549668E+08, -5.268474807493618E+07,
2460399.500000000, A.D. 2024-Mar-30 00:00:00.0000, 2.122224096602435E+08, 1.976687255176298E+08, -4.723193883559899E+07,
2460406.500000000, A.D. 2024-Apr-06 00:00:00.0000, 2.022144590224194E+08, 2.053583984287509E+08, -4.168879801581489E+07,
2460413.500000000, A.D. 2024-Apr-13 00:00:00.0000, 1.918091999055823E+08, 2.126444882947412E+08, -3.606375070964499E+07,
2460420.500000000, A.D. 2024-Apr-20 00:00:00.0000, 1.810169241373166E+08, 2.195014057816335E+08, -3.036594530565956E+07,
2460427.500000000, A.D. 2024-Apr-27 00:00:00.0000, 1.698497513159989E+08, 2.259035850949480E+08, -2.460526418122087E+07,
2460434.500000000, A.D. 2024-May-04 00:00:00.0000, 1.583217178270015E+08, 2.318256507513507E+08, -1.879232716133170E+07,
2460441.500000000, A.D. 2024-May-11 00:00:00.0000, 1.464488538300085E+08, 2.372426026134709E+08, -1.293848658854991E+07,
2460448.500000000, A.D. 2024-May-18 00:00:00.0000, 1.342492450319968E+08, 2.421300184359553E+08, -7.055812839574024E+06,
2460455.500000000, A.D. 2024-May-25 00:00:00.0000, 1.217430758586477E+08, 2.464642725057415E+08, -1.157069181416929E+06,
2460462.500000000, A.D. 2024-Jun-01 00:00:00.0000, 1.089526506283106E+08, 2.502227681897793E+08, 4.744325016350746E+06,
2460469.500000000, A.D. 2024-Jun-08 00:00:00.0000, 9.590238959167257E+07, 2.533841814603897E+08, 1.063434349989395E+07,
2460476.500000000, A.D. 2024-Jun-15 00:00:00.0000, 8.261879706761675E+07, 2.559287122555181E+08, 1.649841534369346E+07,
2460483.500000000, A.D. 2024-Jun-22 00:00:00.0000, 6.913039790520708E+07, 2.578383404219728E+08, 2.232150057908039E+07,
2460490.500000000, A.D. 2024-Jun-29 00:00:00.0000, 5.546763798620342E+07, 2.590970792972594E+08, 2.808817914106591E+07,
2460497.500000000, A.D. 2024-Jul-06 00:00:00.0000, 4.166275003259049E+07, 2.596912187677918E+08, 3.378275212623844E+07,
2460504.500000000, A.D. 2024-Jul-13 00:00:00.0000, 2.774958627909596E+07, 2.596095545131485E+08, 3.938935439169942E+07,
2460511.500000000, A.D. 2024-Jul-20 00:00:00.0000, 1.376341672486451E+07, 2.588435981955302E+08, 4.489207726148294E+07,
2460518.500000000, A.D. 2024-Jul-27 00:00:00.0000, -2.593058245680007E+05, 2.573877612685025E+08, 5.027509933279414E+07,
2460525.500000000, A.D. 2024-Aug-03 00:00:00.0000, -1.428121055064921E+07, 2.552395059964776E+08, 5.552282289679815E+07,
2460532.500000000, A.D. 2024-Aug-10 00:00:00.0000, -2.826429876482800E+07, 2.523994582762642E+08, 6.062001315762456E+07,
2460539.500000000, A.D. 2024-Aug-17 00:00:00.0000, -4.217025391178179E+07, 2.488714777989634E+08, 6.555193717227542E+07,
2460546.500000000, A.D. 2024-Aug-24 00:00:00.0000, -5.596076501230630E+07, 2.446626822308231E+08, 7.030449927939156E+07,
2460553.500000000, A.D. 2024-Aug-31 00:00:00.0000, -6.959785632683221E+07, 2.397834234488434E+08, 7.486436975881493E+07,
2460560.500000000, A.D. 2024-Sep-07 00:00:00.0000, -8.304421535529786E+07, 2.342472155923054E+08, 7.921910358796610E+07,
2460567.500000000, A.D. 2024-Sep-14 00:00:00.0000, -9.626351148686139E+07, 2.280706171569803E+08, 8.335724653542680E+07,
2460574.500000000, A.D. 2024-Sep-21 00:00:00.0000, -1.092206999837535E+08, 2.212730703435953E+08, 8.726842639143237E+07,
2460581.500000000, A.D. 2024-Sep-28 00:00:00.0000, -1.218823050077565E+08, 2.138766986555424E+08, 9.094342720491272E+07,
2460588.500000000, A.D. 2024-Oct-05 00:00:00.0000, -1.342166721255765E+08, 2.059060681598214E+08, 9.437424485595936E+07,
2460595.500000000, A.D. 2024-Oct-12 00:00:00.0000, -1.461941858999141E+08, 1.973879217785985E+08, 9.755412356011039E+07,
2460602.500000000, A.D. 2024-Oct-19 00:00:00.0000, -1.577874508132995E+08, 1.883508933740835E+08, 1.004775734046321E+08,
2460609.500000000, A.D. 2024-Oct-26 00:00:00.0000, -1.689714333995583E+08, 1.788252081327620E+08, 1.031403694078355E+08,
2460616.500000000, A.D. 2024-Nov-02 00:00:00.0000, -1.797235645308928E+08, 1.688423763704630E+08, 1.055395331602070E+08,
2460623.500000000, A.D. 2024-Nov-09 00:00:00.0000, -1.900238022538118E+08, 1.584348877173861E+08, 1.076732985900423E+08,
2460630.500000000, A.D. 2024-Nov-16 00:00:00.0000, -1.998546567857075E+08, 1.476359120342573E+08, 1.095410637509577E+08,
2460637.500000000, A.D. 2024-Nov-23 00:00:00.0000, -2.092011802302616E+08, 1.364790125758953E+08, 1.111433307607204E+08,
2460644.500000000, A.D. 2024-Nov-30 00:00:00.0000, -2.180509241668897E+08, 1.249978760079907E+08, 1.124816361341307E+08,
2460651.500000000, A.D. 2024-Dec-07 00:00:00.0000, -2.263938685962444E+08, 1.132260633584268E+08, 1.135584737957439E+08,
2460658.500000000, A.D. 2024-Dec-14 00:00:00.0000, -2.342223271553825E+08, 1.011967857879615E+08, 1.143772131612896E+08,
2460665.500000000, A.D. 2024-Dec-21 00:00:00.0000, -2.415308352747250E+08, 8.894270564170504E+07, 1.149420144919685E+08,
2460672.500000000, A.D. 2024-Dec-28 00:00:00.0000, -2.483160236047258E+08, 7.649576064224401E+07, 1.152577430010764E+08,
2460679.500000000, A.D. 2025-Jan-04 00:00:00.0000, -2.545764782047709E+08, 6.388701364827149E+07, 1.153298833282489E+08,
2460686.500000000, A.D. 2025-Jan-11 00:00:00.0000, -2.603125931081057E+08, 5.114652901491508E+07, 1.151644560907173E+08,
2460693.500000000, A.D. 2025-Jan-18 00:00:00.0000, -2.655264196075480E+08, 3.830327349182849E+07, 1.147679376857633E+08,
2460700.500000000, A.D. 2025-Jan-25 00:00:00.0000, -2.702215150141228E+08, 2.538503964749131E+07, 1.141471841974196E+08,
2460707.500000000, A.D. 2025-Feb-01 00:00:00.0000, -2.744027932425194E+08, 1.241838996677406E+07, 1.133093600602630E+08,
2460714.500000000, A.D. 2025-Feb-08 00:00:00.0000, -2.780763792648106E+08, -5.713803609659597E+05, 1.122618719347197E+08,
$$EOE